CRE (WAAS/PRN 138)      
1 28868U 05036A   22337.43637447 -.00000068  00000+0  00000+0 0  9994
2 28868   0.9888  92.0332 0001186 108.6707 281.3338  1.00271556 63207
IOR-W (EGNOS/PRN 126)   
1 28899U 05044A   22336.87253240  .00000014  00000+0  00000+0 0  9999
2 28899   3.6352  38.8480 0002994 215.4334 195.4120  1.00270739 62564
QZS-1 (QZSS/PRN 183)    
1 37158U 10045A   22337.30257792 -.00000093  00000+0  00000+0 0  9997
2 37158  42.5167 131.0592 0753010 270.3381 277.3151  1.00265452 44764
GSAT-8 (GAGAN/PRN 127)  
1 37605U 11022A   22336.82780615  .00000089  00000+0  00000+0 0  9995
2 37605   0.0135 276.0394 0008742 339.5885 169.1199  1.00271039 40255
LUCH 5A (SDCM/PRN 140)  
1 37951U 11074B   22337.31274691 -.00000042  00000+0  00000+0 0  9993
2 37951   5.4415  94.5083 0002648 132.1278 124.8929  1.00271247 40237
SES-5 (EGNOS/PRN 136)   
1 38652U 12036A   22337.38868691  .00000040  00000+0  00000+0 0  9994
2 38652   0.0561 295.8568 0002062 314.0302 327.2217  1.00270997 38116
GSAT-10 (GAGAN/PRN 128) 
1 38779U 12051B   22336.42063193 -.00000162  00000+0  00000+0 0  9995
2 38779   0.0808 102.5760 0004526 162.4890  40.6180  1.00272461 37327
LUCH 5B (SDCM/PRN 125)  
1 38977U 12061A   22336.95882851 -.00000132  00000+0  00000+0 0  9991
2 38977   7.6564  61.3275 0003424 133.2512 206.0525  1.00271317 37213
ASTRA 5B (EGNOS/PRN 123)
1 39617U 14011B   22336.82309924  .00000159  00000+0  00000+0 0  9999
2 39617   0.0657 306.6187 0004003 283.8102 169.0598  1.00269793 31704
LUCH 5V (SDCM/PRN 141)  
1 39727U 14023A   22337.12268519 -.00000264  00000+0  00000+0 0  9990
2 39727   1.9044  76.9767 0002893 194.3564 299.4844  1.00274695549556
GSAT-15 (GAGAN/PRN 139) 
1 41028U 15065A   22336.84828062 -.00000253  00000+0  00000+0 0  9995
2 41028   0.0695 273.1840 0002918 297.9837 259.3705  1.00271193 25852
E 117 W B (WAAS/PRN 131)
1 41589U 16038B   22336.93702384 -.00000007  00000+0  00000+0 0  9993
2 41589   0.0085 149.5931 0000197 164.6055 337.9056  1.00271737 23745
SES-15 (WAAS/PRN 133)   
1 42709U 17026A   22336.71937293  .00000064  00000+0  00000+0 0  9993
2 42709   0.0183 356.5186 0001112 205.4537 359.3923  1.00272833 21183
QZS-2 (QZSS/PRN 184)    
1 42738U 17028A   22336.12886187 -.00000234  00000+0  00000+0 0  9997
2 42738  41.4967 261.7960 0760922 269.2713  85.8932  1.00290077 20186
QZS-3 (QZSS/PRN 189)    
1 42917U 17048A   22337.60619359 -.00000341  00000+0  00000+0 0  9996
2 42917   0.0704 141.2005 0001740 122.1399 154.3624  1.00269890 19413
QZS-4 (QZSS/PRN 185)    
1 42965U 17062A   22336.41093043 -.00000348  00000+0  00000+0 0  9996
2 42965  40.7262 359.9639 0750933 271.1333  85.5242  1.00259796 18857
GALAXY 30 (WAAS/PRN 135)
1 46114U 20056C   22337.36976543  .00000042  00000+0  00000+0 0  9993
2 46114   0.0033 353.4839 0002198 252.9307 193.8840  1.00273183  8452
